{
"type": "FeatureCollection",
"name": "Buildings",
"crs": { "type": "name", "properties": { "name": "urn:ogc:def:crs:OGC:1.3:CRS84" } },
"features": [
{ "type": "Feature", "properties": { "OBJECTID": 1, "SHAPE_Leng": 0.00162994116, "SHAPE_Area": 1.6603e-07, "Name": "ADMINISTRATIVE BUILDING", "Building_H": 7.0, "id": 1, "Infrastruc": "INSTITUTIONAL" }, "geometry": { "type": "MultiPolygon", "coordinates": [ [ [ [ 3.825897948000033, 7.239792010000031 ], [ 3.826183173000061, 7.240078670000059 ], [ 3.826477433000036, 7.239799573000028 ], [ 3.826189319000036, 7.239505739000037 ], [ 3.825897948000033, 7.239792010000031 ] ] ] ] } },
{ "type": "Feature", "properties": { "OBJECTID": 2, "SHAPE_Leng": 0.00056797136, "SHAPE_Area": 1.617e-08, "Name": "REGISTRY DEPARTMENT", "Building_H": 3.6, "id": 2, "Infrastruc": "INSTITUTIONAL" }, "geometry": { "type": "MultiPolygon", "coordinates": [ [ [ [ 3.825612422000063, 7.239866476000032 ], [ 3.825680198000043, 7.239907635000066 ], [ 3.82578292200003, 7.239729159000035 ], [ 3.825715150000065, 7.239689795000061 ], [ 3.825612422000063, 7.239866476000032 ] ] ] ] } },
{ "type": "Feature", "properties": { "OBJECTID": 3, "SHAPE_Leng": 0.00015479376, "SHAPE_Area": 1.45e-09, "Name": null, "Building_H": 2.5, "id": 3, "Infrastruc": null }, "geometry": { "type": "MultiPolygon", "coordinates": [ [ [ [ 3.825692367000045, 7.240015624000023 ], [ 3.825713974000053, 7.240037123000036 ], [ 3.825748913000041, 7.240009299000064 ], [ 3.825725861000024, 7.239984452000044 ], [ 3.825692367000045, 7.240015624000023 ] ] ] ] } },
{ "type": "Feature", "properties": { "OBJECTID": 4, "SHAPE_Leng": 0.00021272008, "SHAPE_Area": 2.71e-09, "Name": null, "Building_H": 2.5, "id": 4, "Infrastruc": null }, "geometry": { "type": "MultiPolygon", "coordinates": [ [ [ [ 3.82571972900007, 7.240038915000071 ], [ 3.825762963000045, 7.240086658000052 ], [ 3.825793965000059, 7.240055874000063 ], [ 3.82574945600004, 7.240010544000029 ], [ 3.82571972900007, 7.240038915000071 ] ] ] ] } },
{ "type": "Feature", "properties": { "OBJECTID": 5, "SHAPE_Leng": 0.00020079711, "SHAPE_Area": 2.46e-09, "Name": null, "Building_H": 2.5, "id": 5, "Infrastruc": null }, "geometry": { "type": "MultiPolygon", "coordinates": [ [ [ [ 3.825767555000027, 7.240088085000025 ], [ 3.825809040000024, 7.240128598000069 ], [ 3.825839660000042, 7.240098484000043 ], [ 3.825798176000035, 7.240058738000073 ], [ 3.825767555000027, 7.240088085000025 ] ] ] ] } },
{ "type": "Feature", "properties": { "OBJECTID": 6, "SHAPE_Leng": 0.00021555778, "SHAPE_Area": 2.77e-09, "Name": null, "Building_H": 2.5, "id": 6, "Infrastruc": null }, "geometry": { "type": "MultiPolygon", "coordinates": [ [ [ [ 3.825865151000073, 7.240186343000062 ], [ 3.825910467000028, 7.240231431000041 ], [ 3.825940670000023, 7.240202958000054 ], [ 3.825894150000067, 7.24015458100007 ], [ 3.825865151000073, 7.240186343000062 ] ] ] ] } },
{ "type": "Feature", "properties": { "OBJECTID": 7, "SHAPE_Leng": 0.00021653183, "SHAPE_Area": 2.82e-09, "Name": null, "Building_H": 2.5, "id": 7, "Infrastruc": null }, "geometry": { "type": "MultiPolygon", "coordinates": [ [ [ [ 3.825911719000032, 7.24023468300004 ], [ 3.825955746000034, 7.240282709000041 ], [ 3.825987405000035, 7.240250730000071 ], [ 3.825942436000048, 7.240205336000031 ], [ 3.825911719000032, 7.24023468300004 ] ] ] ] } },
{ "type": "Feature", "properties": { "OBJECTID": 8, "SHAPE_Leng": 0.00021677623, "SHAPE_Area": 2.77e-09, "Name": null, "Building_H": 2.5, "id": 8, "Infrastruc": null }, "geometry": { "type": "MultiPolygon", "coordinates": [ [ [ [ 3.825960678000058, 7.240285200000073 ], [ 3.826005229000032, 7.240328845000022 ], [ 3.826035508000075, 7.240299609000033 ], [ 3.826035646000037, 7.240296880000074 ], [ 3.825993224000058, 7.240254982000067 ], [ 3.825988479000046, 7.240254847000074 ], [ 3.825982473000067, 7.240261618000034 ], [ 3.825981408000075, 7.240269158000046 ], [ 3.825979497000048, 7.240272273000073 ], [ 3.825976504000039, 7.24027383400005 ], [ 3.825971112000047, 7.240273604000038 ], [ 3.825961540000037, 7.240281758000037 ], [ 3.825960678000058, 7.240285200000073 ] ] ] ] } },
{ "type": "Feature", "properties": { "OBJECTID": 9, "SHAPE_Leng": 0.00025021522, "SHAPE_Area": 3.7e-09, "Name": null, "Building_H": 2.5, "id": 9, "Infrastruc": null }, "geometry": { "type": "MultiPolygon", "coordinates": [ [ [ [ 3.826096530000029, 7.240351605000058 ], [ 3.826058855000042, 7.24038996400003 ], [ 3.82611016900006, 7.240438631000075 ], [ 3.826143958000046, 7.240405066000051 ], [ 3.826133156000026, 7.240395213000056 ], [ 3.826137645000074, 7.240392812000039 ], [ 3.826097129000061, 7.240351604000068 ], [ 3.826096530000029, 7.240351605000058 ] ] ] ] } },
{ "type": "Feature", "properties": { "OBJECTID": 10, "SHAPE_Leng": 0.00016451382, "SHAPE_Area": 1.43e-09, "Name": null, "Building_H": 2.5, "id": 10, "Infrastruc": null }, "geometry": { "type": "MultiPolygon", "coordinates": [ [ [ [ 3.826116097000067, 7.240370896000059 ], [ 3.826116714000023, 7.240371523000022 ], [ 3.826137645000074, 7.240392812000039 ], [ 3.826133156000026, 7.240395213000056 ], [ 3.826143958000046, 7.240405066000051 ], [ 3.82614828100003, 7.240410047000069 ], [ 3.826169574000062, 7.240386388000047 ], [ 3.826134683000021, 7.24035189500006 ], [ 3.826116097000067, 7.240370896000059 ] ] ] ] } },
{ "type": "Feature", "properties": { "OBJECTID": 11, "SHAPE_Leng": 0.0024547799, "SHAPE_Area": 1.2883e-07, "Name": "FACULTY OF ENVIRONMENTAL SCIENCE AND MANAGEMENT", "Building_H": 7.0, "id": 11, "Infrastruc": "INSTITUTIONAL" }, "geometry": { "type": "MultiPolygon", "coordinates": [ [ [ [ 3.826479508000034, 7.24029437300004 ], [ 3.826468028000022, 7.240307317000031 ], [ 3.826493595000045, 7.240331322000031 ], [ 3.826505075000057, 7.240318737000052 ], [ 3.826537846000065, 7.240350985000021 ], [ 3.826587006000068, 7.240302793000069 ], [ 3.826805197000056, 7.240517262000026 ], [ 3.82679323900004, 7.240530207000063 ], [ 3.826818207000031, 7.240555050000069 ], [ 3.826829690000068, 7.240543542000069 ], [ 3.826863773000071, 7.240572677000046 ], [ 3.827018255000041, 7.240423781000061 ], [ 3.826985843000045, 7.240391234000072 ], [ 3.826997208000023, 7.240381042000024 ], [ 3.826970044000063, 7.240355126000054 ], [ 3.826958561000026, 7.240366155000061 ], [ 3.826928069000076, 7.240334860000075 ], [ 3.826876395000056, 7.240384492000032 ], [ 3.826818726000056, 7.240324653000073 ], [ 3.826823629000046, 7.240319259000046 ], [ 3.82679622400002, 7.240293268000073 ], [ 3.826835512000059, 7.240253991000031 ], [ 3.826884090000021, 7.240301724000062 ], [ 3.826915793000069, 7.240271190000044 ], [ 3.826929764000056, 7.240283800000043 ], [ 3.82695495300004, 7.240257891000056 ], [ 3.82694342700006, 7.240245587000061 ], [ 3.826974520000022, 7.240215063000051 ], [ 3.826821875000064, 7.240063231000022 ], [ 3.826788979000071, 7.240094043000056 ], [ 3.826775773000065, 7.240080187000046 ], [ 3.826750902000072, 7.240109189000066 ], [ 3.826764105000052, 7.240121370000054 ], [ 3.826730849000057, 7.240151345000072 ], [ 3.826780835000022, 7.240201281000054 ], [ 3.826736432000075, 7.240243098000064 ], [ 3.826659552000024, 7.240168228000073 ], [ 3.826671323000028, 7.240157294000028 ], [ 3.826645105000068, 7.240131745000042 ], [ 3.826634161000072, 7.240142474000038 ], [ 3.826601266000068, 7.240111160000026 ], [ 3.826446710000027, 7.240262418000043 ], [ 3.826479508000034, 7.24029437300004 ] ] ] ] } },
{ "type": "Feature", "properties": { "OBJECTID": 12, "SHAPE_Leng": 0.00018024237, "SHAPE_Area": 2.02e-09, "Name": null, "Building_H": 2.5, "id": 12, "Infrastruc": null }, "geometry": { "type": "MultiPolygon", "coordinates": [ [ [ [ 3.827115413000058, 7.240159722000044 ], [ 3.82714902400005, 7.240192925000031 ], [ 3.827180125000041, 7.240163672000051 ], [ 3.827143877000026, 7.240130234000048 ], [ 3.827115413000058, 7.240159722000044 ] ] ] ] } },
{ "type": "Feature", "properties": { "OBJECTID": 13, "SHAPE_Leng": 9.187565e-05, "SHAPE_Area": 5.3e-10, "Name": null, "Building_H": 2.5, "id": 13, "Infrastruc": null }, "geometry": { "type": "MultiPolygon", "coordinates": [ [ [ [ 3.827174223000043, 7.240488537000033 ], [ 3.827190729000051, 7.240505259000031 ], [ 3.827206576000037, 7.240488777000053 ], [ 3.827189771000064, 7.24047265400003 ], [ 3.827174223000043, 7.240488537000033 ] ] ] ] } },
{ "type": "Feature", "properties": { "OBJECTID": 14, "SHAPE_Leng": 0.00042438013, "SHAPE_Area": 9.78e-09, "Name": "TOILET", "Building_H": 3.6, "id": 14, "Infrastruc": null }, "geometry": { "type": "MultiPolygon", "coordinates": [ [ [ [ 3.828592825000044, 7.240779374000056 ], [ 3.82869940300003, 7.240874667000071 ], [ 3.82874604400007, 7.240825044000076 ], [ 3.828636587000062, 7.240728321000063 ], [ 3.828592825000044, 7.240779374000056 ] ] ] ] } },
{ "type": "Feature", "properties": { "OBJECTID": 15, "SHAPE_Leng": 0.00012781531, "SHAPE_Area": 9.8e-10, "Name": null, "Building_H": 2.5, "id": 15, "Infrastruc": null }, "geometry": { "type": "MultiPolygon", "coordinates": [ [ [ [ 3.827968131000034, 7.240647823000074 ], [ 3.82796985300007, 7.240646097000024 ], [ 3.82797868800003, 7.240654696000036 ], [ 3.827999734000059, 7.240630918000022 ], [ 3.827976498000055, 7.240610283000024 ], [ 3.827955842000051, 7.240637507000031 ], [ 3.827968131000034, 7.240647823000074 ] ] ] ] } },
{ "type": "Feature", "properties": { "OBJECTID": 16, "SHAPE_Leng": 0.00023824798, "SHAPE_Area": 3.16e-09, "Name": "BLOOM EATRY", "Building_H": 2.5, "id": 16, "Infrastruc": "COMMERCIAL" }, "geometry": { "type": "MultiPolygon", "coordinates": [ [ [ [ 3.827956080000035, 7.240662970000074 ], [ 3.828002471000048, 7.240707111000063 ], [ 3.828040089000069, 7.240667390000056 ], [ 3.82800179000003, 7.240631552000025 ], [ 3.828000504000045, 7.240630395000039 ], [ 3.827999734000059, 7.240630918000022 ], [ 3.827994552000064, 7.240636773000062 ], [ 3.82797868800003, 7.240654696000036 ], [ 3.827970852000021, 7.240647069000033 ], [ 3.827956080000035, 7.240662970000074 ] ] ] ] } },
{ "type": "Feature", "properties": { "OBJECTID": 17, "SHAPE_Leng": 0.00059546158, "SHAPE_Area": 1.672e-08, "Name": null, "Building_H": 2.5, "id": 17, "Infrastruc": null }, "geometry": { "type": "MultiPolygon", "coordinates": [ [ [ [ 3.828021503000059, 7.240725910000037 ], [ 3.828074920000063, 7.240777864000052 ], [ 3.828226802000074, 7.240616050000028 ], [ 3.828173382000045, 7.240562301000068 ], [ 3.828021503000059, 7.240725910000037 ] ] ] ] } },
{ "type": "Feature", "properties": { "OBJECTID": 18, "SHAPE_Leng": 0.00068064852, "SHAPE_Area": 2.872e-08, "Name": "LECTURE THEATRE  A", "Building_H": 3.6, "id": 18, "Infrastruc": "INSTITUTIONAL" }, "geometry": { "type": "MultiPolygon", "coordinates": [ [ [ [ 3.828231625000058, 7.240698126000041 ], [ 3.828109035000068, 7.240824588000066 ], [ 3.828171447000045, 7.240880713000024 ], [ 3.828229658000055, 7.240933855000037 ], [ 3.828352840000036, 7.240803802000073 ], [ 3.828353740000068, 7.240804100000048 ], [ 3.828231625000058, 7.240698126000041 ] ] ] ] } },
{ "type": "Feature", "properties": { "OBJECTID": 19, "SHAPE_Leng": 0.00019109729, "SHAPE_Area": 1.97e-09, "Name": null, "Building_H": 2.5, "id": 19, "Infrastruc": null }, "geometry": { "type": "MultiPolygon", "coordinates": [ [ [ [ 3.82823359300005, 7.240937448000068 ], [ 3.828278900000043, 7.24097775000007 ], [ 3.828298633000031, 7.24095677400004 ], [ 3.828253320000044, 7.240913481000064 ], [ 3.828250584000045, 7.240911762000053 ], [ 3.828229658000055, 7.240933855000037 ], [ 3.82823359300005, 7.240937448000068 ] ] ] ] } },
{ "type": "Feature", "properties": { "OBJECTID": 20, "SHAPE_Leng": 0.00026423418, "SHAPE_Area": 3.04e-09, "Name": null, "Building_H": 2.5, "id": 20, "Infrastruc": null }, "geometry": { "type": "MultiPolygon", "coordinates": [ [ [ [ 3.828265689000034, 7.240925298000036 ], [ 3.828265933000068, 7.240925532000063 ], [ 3.828287203000059, 7.240945853000028 ], [ 3.828287222000029, 7.240945872000054 ], [ 3.828356307000035, 7.24087014600002 ], [ 3.82833467200004, 7.240849813000068 ], [ 3.828265689000034, 7.240925298000036 ] ] ] ] } },
{ "type": "Feature", "properties": { "OBJECTID": 21, "SHAPE_Leng": 0.00019341799, "SHAPE_Area": 2.03e-09, "Name": null, "Building_H": 2.5, "id": 21, "Infrastruc": null }, "geometry": { "type": "MultiPolygon", "coordinates": [ [ [ [ 3.828342830000054, 7.240814370000066 ], [ 3.828342778000035, 7.240814425000053 ], [ 3.828321656000071, 7.240836726000055 ], [ 3.828321506000066, 7.240836884000032 ], [ 3.828321748000064, 7.24083752100006 ], [ 3.82833467200004, 7.240849813000068 ], [ 3.828356307000035, 7.24087014600002 ], [ 3.828357228000073, 7.240871313000071 ], [ 3.828369423000026, 7.240882554000052 ], [ 3.828389992000041, 7.240860500000053 ], [ 3.828342830000054, 7.240814370000066 ] ] ] ] } },
{ "type": "Feature", "properties": { "OBJECTID": 22, "SHAPE_Leng": 0.0006714919, "SHAPE_Area": 2.82e-08, "Name": "LECTURE THEATRE B", "Building_H": 3.6, "id": 22, "Infrastruc": "INSTITUTIONAL" }, "geometry": { "type": "MultiPolygon", "coordinates": [ [ [ [ 3.828279959000042, 7.240980724000053 ], [ 3.828338710000025, 7.241034305000028 ], [ 3.828396564000059, 7.241088285000046 ], [ 3.828517904000023, 7.240960377000022 ], [ 3.828459372000054, 7.240904170000022 ], [ 3.828400283000065, 7.240851736000025 ], [ 3.828279959000042, 7.240980724000053 ] ] ] ] } },
{ "type": "Feature", "properties": { "OBJECTID": 23, "SHAPE_Leng": 0.00060399307, "SHAPE_Area": 1.715e-08, "Name": null, "Building_H": 2.5, "id": 23, "Infrastruc": null }, "geometry": { "type": "MultiPolygon", "coordinates": [ [ [ [ 3.828448772000058, 7.241118795000034 ], [ 3.828503986000044, 7.241170745000034 ], [ 3.828658258000075, 7.241005337000047 ], [ 3.828603044000033, 7.240953387000047 ], [ 3.828448772000058, 7.241118795000034 ] ] ] ] } },
{ "type": "Feature", "properties": { "OBJECTID": 24, "SHAPE_Leng": 0.00019362833, "SHAPE_Area": 2.1e-09, "Name": null, "Building_H": 2.5, "id": 24, "Infrastruc": null }, "geometry": { "type": "MultiPolygon", "coordinates": [ [ [ [ 3.828489543000046, 7.241201129000046 ], [ 3.828534259000037, 7.24124591900005 ], [ 3.828558178000037, 7.241220747000057 ], [ 3.828510170000072, 7.241177758000049 ], [ 3.828489543000046, 7.241201129000046 ] ] ] ] } },
{ "type": "Feature", "properties": { "OBJECTID": 25, "SHAPE_Leng": 0.00021998785, "SHAPE_Area": 3e-09, "Name": "MOJOLA OLUWA VENTURE", "Building_H": 3.0, "id": 25, "Infrastruc": "COMMERCIAL" }, "geometry": { "type": "MultiPolygon", "coordinates": [ [ [ [ 3.828430918000038, 7.241249697000057 ], [ 3.828465576000042, 7.241285088000041 ], [ 3.828508490000047, 7.241241778000074 ], [ 3.82847128100002, 7.241207145000033 ], [ 3.828430918000038, 7.241249697000057 ] ] ] ] } },
{ "type": "Feature", "properties": { "OBJECTID": 28, "SHAPE_Leng": 0.00160758362, "SHAPE_Area": 9.565e-08, "Name": "OFFICE COMPLEX", "Building_H": 8.0, "id": 26, "Infrastruc": "INSTITUTIONAL" }, "geometry": { "type": "MultiPolygon", "coordinates": [ [ [ [ 3.824750962000053, 7.241067147000024 ], [ 3.824727200000041, 7.241119133000041 ], [ 3.824806207000051, 7.241155972000058 ], [ 3.824814803000038, 7.241138726000031 ], [ 3.824867335000022, 7.241165195000065 ], [ 3.824855873000047, 7.241188190000059 ], [ 3.824865995000039, 7.241219043000058 ], [ 3.824912050000023, 7.241242652000039 ], [ 3.824944386000027, 7.241233260000058 ], [ 3.824957995000034, 7.241205235000052 ], [ 3.825011248000067, 7.24123313900003 ], [ 3.825004087000025, 7.241248947000031 ], [ 3.82508252100007, 7.241286855000055 ], [ 3.825106155000071, 7.241236556000047 ], [ 3.825133496000035, 7.241247994000048 ], [ 3.825189353000042, 7.241137604000073 ], [ 3.825098806000028, 7.24109349500003 ], [ 3.825099994000027, 7.241088109000032 ], [ 3.825052023000069, 7.241065461000062 ], [ 3.825060968000059, 7.241042710000045 ], [ 3.824864916000024, 7.240948719000073 ], [ 3.824902166000072, 7.240873985000064 ], [ 3.824829487000045, 7.240838220000057 ], [ 3.824723139000071, 7.241053796000074 ], [ 3.824750962000053, 7.241067147000024 ] ] ] ] } },
{ "type": "Feature", "properties": { "OBJECTID": 29, "SHAPE_Leng": 0.00155736585, "SHAPE_Area": 5.92e-08, "Name": "NEW ACADEMIC BUILDING", "Building_H": 7.0, "id": 27, "Infrastruc": "INSTITUTIONAL" }, "geometry": { "type": "MultiPolygon", "coordinates": [ [ [ [ 3.823518402000047, 7.240186988000062 ], [ 3.823545878000061, 7.240209635000042 ], [ 3.823565244000065, 7.24018447100002 ], [ 3.823764023000024, 7.240351102000034 ], [ 3.823745616000053, 7.24037626300003 ], [ 3.823772499000029, 7.240399667000077 ], [ 3.823793246000037, 7.240376291000075 ], [ 3.82380254900005, 7.240385248000052 ], [ 3.82381841800003, 7.240380732000062 ], [ 3.823821984000062, 7.240365170000075 ], [ 3.823810703000049, 7.240355319000059 ], [ 3.823894998000071, 7.240255731000047 ], [ 3.823903999000038, 7.240263612000035 ], [ 3.823946019000061, 7.240215379000063 ], [ 3.823881698000037, 7.240162846000032 ], [ 3.823824323000053, 7.24024048800004 ], [ 3.823670393000043, 7.240110898000069 ], [ 3.823736404000044, 7.240038027000026 ], [ 3.823674960000062, 7.239986446000046 ], [ 3.823631912000053, 7.240035344000034 ], [ 3.823638927000047, 7.240044617000024 ], [ 3.823555706000036, 7.240142408000054 ], [ 3.823544180000056, 7.240129506000073 ], [ 3.823519772000054, 7.24014965300006 ], [ 3.823537050000027, 7.240162544000043 ], [ 3.823518402000047, 7.240186988000062 ] ] ] ] } },
{ "type": "Feature", "properties": { "OBJECTID": 30, "SHAPE_Leng": 0.00011197207, "SHAPE_Area": 7.7e-10, "Name": null, "Building_H": 2.5, "id": 28, "Infrastruc": null }, "geometry": { "type": "MultiPolygon", "coordinates": [ [ [ [ 3.823543530000052, 7.24021693800006 ], [ 3.82356393200007, 7.240234251000061 ], [ 3.823583063000058, 7.240211482000063 ], [ 3.82356685600007, 7.240194759000076 ], [ 3.823543530000052, 7.24021693800006 ] ] ] ] } },
{ "type": "Feature", "properties": { "OBJECTID": 31, "SHAPE_Leng": 0.00016081545, "SHAPE_Area": 1.51e-09, "Name": null, "Building_H": 2.5, "id": 29, "Infrastruc": null }, "geometry": { "type": "MultiPolygon", "coordinates": [ [ [ [ 3.823624533000043, 7.240283800000043 ], [ 3.823661135000066, 7.240314246000025 ], [ 3.823683263000021, 7.240292668000052 ], [ 3.823642464000045, 7.240259836000064 ], [ 3.823624533000043, 7.240283800000043 ] ] ] ] } },
{ "type": "Feature", "properties": { "OBJECTID": 32, "SHAPE_Leng": 0.00011853106, "SHAPE_Area": 8.5e-10, "Name": null, "Building_H": 2.5, "id": 30, "Infrastruc": "INSTITUTIONAL" }, "geometry": { "type": "MultiPolygon", "coordinates": [ [ [ [ 3.823716346000026, 7.240364592000049 ], [ 3.823737860000051, 7.240375801000027 ], [ 3.823759087000042, 7.240352728000062 ], [ 3.823738581000043, 7.240335834000064 ], [ 3.823716346000026, 7.240364592000049 ] ] ] ] } },
{ "type": "Feature", "properties": { "OBJECTID": 33, "SHAPE_Leng": 0.00099785632, "SHAPE_Area": 5.062e-08, "Name": "BIOLOGICAL SCIENCE", "Building_H": 7.0, "id": 31, "Infrastruc": null }, "geometry": { "type": "MultiPolygon", "coordinates": [ [ [ [ 3.823144330000048, 7.239903089000052 ], [ 3.823248813000021, 7.239900986000066 ], [ 3.823287221000044, 7.239936335000039 ], [ 3.823287304000075, 7.239982283000074 ], [ 3.823456015000033, 7.239981021000062 ], [ 3.82345470100006, 7.23978478500004 ], [ 3.823143156000071, 7.239784391000057 ], [ 3.823144330000048, 7.239903089000052 ] ] ] ] } },
{ "type": "Feature", "properties": { "OBJECTID": 34, "SHAPE_Leng": 0.00056532494, "SHAPE_Area": 1.744e-08, "Name": null, "Building_H": 2.5, "id": 32, "Infrastruc": null }, "geometry": { "type": "MultiPolygon", "coordinates": [ [ [ [ 3.823512390000076, 7.239880765000066 ], [ 3.823704107000026, 7.23987922200007 ], [ 3.823703344000023, 7.239788882000028 ], [ 3.823511625000037, 7.239789229000053 ], [ 3.823512390000076, 7.239880765000066 ] ] ] ] } },
{ "type": "Feature", "properties": { "OBJECTID": 35, "SHAPE_Leng": 0.00096912113, "SHAPE_Area": 4.625e-08, "Name": "LABORATORY AND WORKSHOP BUILDING", "Building_H": 7.0, "id": 33, "Infrastruc": "INSTITUTIONAL" }, "geometry": { "type": "MultiPolygon", "coordinates": [ [ [ [ 3.823443577000035, 7.239716576000035 ], [ 3.823708895000038, 7.239711753000051 ], [ 3.823709222000048, 7.239495650000038 ], [ 3.823532400000033, 7.23949708300006 ], [ 3.823530383000048, 7.239573907000022 ], [ 3.823525707000044, 7.239572839000061 ], [ 3.823525387000075, 7.239633864000041 ], [ 3.823441268000067, 7.239632581000023 ], [ 3.823443577000035, 7.239716576000035 ] ] ] ] } },
{ "type": "Feature", "properties": { "OBJECTID": 37, "SHAPE_Leng": 0.00177403957, "SHAPE_Area": 1.7025e-07, "Name": "FACULTY OF ENGINEERING", "Building_H": 9.2, "id": 34, "Infrastruc": "INSTITUTIONAL" }, "geometry": { "type": "MultiPolygon", "coordinates": [ [ [ [ 3.822996752000051, 7.239044961000047 ], [ 3.823239194000053, 7.239279199000066 ], [ 3.823239912000076, 7.239278479000063 ], [ 3.823259288000031, 7.239259060000052 ], [ 3.823275850000073, 7.239273389000061 ], [ 3.823336125000026, 7.239209383000059 ], [ 3.823323873000049, 7.239192892000062 ], [ 3.82352516900005, 7.238989788000026 ], [ 3.823505707000038, 7.238961824000057 ], [ 3.823575488000074, 7.23888646100005 ], [ 3.82338358100003, 7.238701502000026 ], [ 3.823307507000038, 7.238775588000067 ], [ 3.823285904000045, 7.238756243000068 ], [ 3.82308215300003, 7.238960089000045 ], [ 3.823065586000041, 7.238942888000054 ], [ 3.823000274000037, 7.23900474900006 ], [ 3.823014686000022, 7.239022672000033 ], [ 3.822996752000051, 7.239044961000047 ] ] ] ] } },
{ "type": "Feature", "properties": { "OBJECTID": 38, "SHAPE_Leng": 0.00019406825, "SHAPE_Area": 2.03e-09, "Name": null, "Building_H": 2.5, "id": 35, "Infrastruc": null }, "geometry": { "type": "MultiPolygon", "coordinates": [ [ [ [ 3.823082438000029, 7.23922065000005 ], [ 3.823130714000058, 7.239174390000073 ], [ 3.823107465000021, 7.239151928000069 ], [ 3.823104057000023, 7.239156176000051 ], [ 3.823062267000068, 7.239198670000064 ], [ 3.823082438000029, 7.23922065000005 ] ] ] ] } },
{ "type": "Feature", "properties": { "OBJECTID": 39, "SHAPE_Leng": 0.00179514293, "SHAPE_Area": 1.6997e-07, "Name": "FACULTY OF NATURAL AND APPLIED SCIENCE", "Building_H": 7.0, "id": 36, "Infrastruc": "INSTITUTIONAL" }, "geometry": { "type": "MultiPolygon", "coordinates": [ [ [ [ 3.822662884000067, 7.23938972600007 ], [ 3.822662796000031, 7.239389635000066 ], [ 3.822661241000048, 7.239391433000037 ], [ 3.822662884000067, 7.23938972600007 ] ] ], [ [ [ 3.822860218000073, 7.239184760000057 ], [ 3.822662884000067, 7.23938972600007 ], [ 3.822683804000064, 7.239411136000058 ], [ 3.822604267000031, 7.239492048000045 ], [ 3.822796212000071, 7.239677131000064 ], [ 3.822875562000036, 7.239597914000058 ], [ 3.822897652000051, 7.239621327000066 ], [ 3.823102336000034, 7.239416641000048 ], [ 3.823119140000074, 7.239432166000029 ], [ 3.823180636000075, 7.23936963400007 ], [ 3.823164426000062, 7.239351116000023 ], [ 3.823184163000064, 7.239331935000052 ], [ 3.822949914000048, 7.239098285000068 ], [ 3.822927904000039, 7.239118906000044 ], [ 3.822912056000064, 7.239101704000063 ], [ 3.822846514000048, 7.239169309000033 ], [ 3.822860218000073, 7.239184760000057 ] ] ] ] } },
{ "type": "Feature", "properties": { "OBJECTID": 40, "SHAPE_Leng": 0.00085274225, "SHAPE_Area": 3.817e-08, "Name": "ESALEM BLOCK  B", "Building_H": 7.0, "id": 37, "Infrastruc": "RESIDENTIAL" }, "geometry": { "type": "MultiPolygon", "coordinates": [ [ [ [ 3.821302653000032, 7.239813581000021 ], [ 3.821344329000055, 7.239800583000033 ], [ 3.821391748000053, 7.239783267000064 ], [ 3.821383071000071, 7.239756 ], [ 3.821405347000052, 7.239749499000027 ], [ 3.821338095000044, 7.239534236000054 ], [ 3.821314378000068, 7.239538587000027 ], [ 3.82130498500004, 7.239512758000046 ], [ 3.821214448000035, 7.239540921000071 ], [ 3.821222410000075, 7.239570342000036 ], [ 3.82119941600007, 7.239576845000045 ], [ 3.821269541000049, 7.239791384000057 ], [ 3.821291816000041, 7.23978416500006 ], [ 3.821302653000032, 7.239813581000021 ] ] ] ] } },
{ "type": "Feature", "properties": { "OBJECTID": 41, "SHAPE_Leng": 0.00086043491, "SHAPE_Area": 3.821e-08, "Name": "ESALEM BLOCK C", "Building_H": 7.0, "id": 38, "Infrastruc": "RESIDENTIAL" }, "geometry": { "type": "MultiPolygon", "coordinates": [ [ [ [ 3.821598298000026, 7.239715311000054 ], [ 3.821691709000049, 7.239686425000059 ], [ 3.821684466000022, 7.239657002000058 ], [ 3.82170458500002, 7.239650504000053 ], [ 3.821635176000029, 7.239435246000028 ], [ 3.821613617000025, 7.23944031000002 ], [ 3.82160350700002, 7.239415201000043 ], [ 3.821510102000047, 7.239447677000044 ], [ 3.82152092900003, 7.239471349000041 ], [ 3.821497931000067, 7.239475699000025 ], [ 3.821566627000038, 7.239694548000045 ], [ 3.82159105300002, 7.239684453000052 ], [ 3.821598298000026, 7.239715311000054 ] ] ] ] } },
{ "type": "Feature", "properties": { "OBJECTID": 42, "SHAPE_Leng": 0.00071412001, "SHAPE_Area": 2.715e-08, "Name": "ELSALEM BLOCK D", "Building_H": 7.0, "id": 39, "Infrastruc": "RESIDENTIAL" }, "geometry": { "type": "MultiPolygon", "coordinates": [ [ [ [ 3.82131163400004, 7.239443919000053 ], [ 3.821419407000064, 7.239405434000048 ], [ 3.821337509000045, 7.239174642000023 ], [ 3.821236913000064, 7.23920593500003 ], [ 3.82131163400004, 7.239443919000053 ] ] ] ] } },
{ "type": "Feature", "properties": { "OBJECTID": 43, "SHAPE_Leng": 0.00071637219, "SHAPE_Area": 2.835e-08, "Name": "ELSALEM BLOCK E", "Building_H": 7.0, "id": 40, "Infrastruc": "RESIDENTIAL" }, "geometry": { "type": "MultiPolygon", "coordinates": [ [ [ [ 3.821095939000031, 7.239161617000036 ], [ 3.821214513000029, 7.239132685000072 ], [ 3.821142196000039, 7.238899483000068 ], [ 3.821033219000071, 7.238934380000046 ], [ 3.821095939000031, 7.239161617000036 ] ] ] ] } },
{ "type": "Feature", "properties": { "OBJECTID": 44, "SHAPE_Leng": 0.00082283306, "SHAPE_Area": 2.688e-08, "Name": "ELSALEM BLOCK F", "Building_H": 7.0, "id": 41, "Infrastruc": "RESIDENTIAL" }, "geometry": { "type": "MultiPolygon", "coordinates": [ [ [ [ 3.821402576000025, 7.239098841000043 ], [ 3.821438508000028, 7.239090401000055 ], [ 3.82143247800002, 7.239068873000065 ], [ 3.821462416000031, 7.239059246000068 ], [ 3.821472043000028, 7.239081964000036 ], [ 3.821503180000036, 7.23907233500006 ], [ 3.821495954000056, 7.239052007000055 ], [ 3.821506732000046, 7.239048397000033 ], [ 3.821452469000064, 7.238859436000041 ], [ 3.821441693000054, 7.238864242000034 ], [ 3.821438053000065, 7.238839120000023 ], [ 3.82140811000005, 7.238846354000032 ], [ 3.821410548000074, 7.238869085000033 ], [ 3.82137820600002, 7.238875126000039 ], [ 3.821370971000022, 7.238850011000068 ], [ 3.821336238000072, 7.238858449000077 ], [ 3.821343468000066, 7.23888117100006 ], [ 3.821332693000045, 7.238885977000052 ], [ 3.821402576000025, 7.239098841000043 ] ] ] ] } },
{ "type": "Feature", "properties": { "OBJECTID": 45, "SHAPE_Leng": 0.00104742794, "SHAPE_Area": 4.366e-08, "Name": "UNIVERSITY HEALTH CENTER", "Building_H": 3.6, "id": 42, "Infrastruc": "INSTITUTIONAL" }, "geometry": { "type": "MultiPolygon", "coordinates": [ [ [ [ 3.821632092000073, 7.238432408000051 ], [ 3.821706856000048, 7.238429402000065 ], [ 3.821706799000026, 7.238397812000073 ], [ 3.821755672000052, 7.238389108000035 ], [ 3.821750896000026, 7.238319141000034 ], [ 3.821768633000033, 7.238321024000072 ], [ 3.821765737000021, 7.238309542000025 ], [ 3.82177628200003, 7.238310002000048 ], [ 3.821775270000046, 7.23828032800003 ], [ 3.821780542000056, 7.238280319000069 ], [ 3.821778988000062, 7.238216185000056 ], [ 3.821767967000028, 7.238217641000062 ], [ 3.821765795000033, 7.238187012000026 ], [ 3.821734642000024, 7.238188026000046 ], [ 3.821725941000068, 7.238081271000055 ], [ 3.821637285000065, 7.238088611000023 ], [ 3.821639130000051, 7.23811493200003 ], [ 3.821600790000048, 7.238116796000043 ], [ 3.821608745000049, 7.238208918000055 ], [ 3.82162551600004, 7.238206495000043 ], [ 3.821635463000064, 7.238344070000039 ], [ 3.821623481000074, 7.238344092000034 ], [ 3.821632092000073, 7.238432408000051 ] ] ] ] } },
{ "type": "Feature", "properties": { "OBJECTID": 46, "SHAPE_Leng": 0.00245194187, "SHAPE_Area": 9.406e-08, "Name": "NEW FEMALE  HOSTEL", "Building_H": 7.0, "id": 43, "Infrastruc": "RESIDENTIAL" }, "geometry": { "type": "MultiPolygon", "coordinates": [ [ [ [ 3.81997040400006, 7.239249486000062 ], [ 3.820434311000042, 7.239219932000026 ], [ 3.82043027900005, 7.239110812000035 ], [ 3.820439865000026, 7.239110795000045 ], [ 3.820432089000064, 7.239051458000063 ], [ 3.820424421000041, 7.239051472000028 ], [ 3.820428058000061, 7.238942338000072 ], [ 3.819958389000021, 7.238966158000039 ], [ 3.819968179000057, 7.239079097000058 ], [ 3.820029522000027, 7.239075158000048 ], [ 3.820031377000021, 7.239040693000049 ], [ 3.820309341000041, 7.23902487600003 ], [ 3.820309400000042, 7.239057423000077 ], [ 3.820269136000036, 7.239055581000059 ], [ 3.820273077000024, 7.239114924000035 ], [ 3.82031908600004, 7.239112927000065 ], [ 3.820317242000044, 7.239153135000038 ], [ 3.820037354000021, 7.239165126000046 ], [ 3.820044950000067, 7.239124908000065 ], [ 3.819968276000054, 7.239132704000042 ], [ 3.81997040400006, 7.239249486000062 ] ] ] ] } },
{ "type": "Feature", "properties": { "OBJECTID": 47, "SHAPE_Leng": 0.00221416254, "SHAPE_Area": 8.264e-08, "Name": "FEMALE UNIVERSITY HOSTEL", "Building_H": 7.0, "id": 44, "Infrastruc": "RESIDENTIAL" }, "geometry": { "type": "MultiPolygon", "coordinates": [ [ [ [ 3.820076757000038, 7.239698409000027 ], [ 3.820372941000073, 7.239686389000042 ], [ 3.820374350000066, 7.239670591000049 ], [ 3.820477876000041, 7.239668969000036 ], [ 3.820474821000062, 7.23956989800007 ], [ 3.820480575000033, 7.239571323000064 ], [ 3.820479026000044, 7.239509583000029 ], [ 3.820470396000076, 7.23950816200005 ], [ 3.820475979000037, 7.239414819000046 ], [ 3.82036382800004, 7.239417893000052 ], [ 3.820366668000077, 7.23939778600004 ], [ 3.820067610000024, 7.239411247000021 ], [ 3.82007358200002, 7.239533287000029 ], [ 3.820105216000059, 7.239533230000063 ], [ 3.820108009000023, 7.239487277000023 ], [ 3.820351002000052, 7.239481096000077 ], [ 3.820349623000027, 7.239514124000038 ], [ 3.820315114000039, 7.239514186000065 ], [ 3.820310904000053, 7.239571629000068 ], [ 3.820356917000026, 7.239571546000036 ], [ 3.820356979000053, 7.23960600700002 ], [ 3.820108237000056, 7.239613635000069 ], [ 3.820109605000027, 7.23957486300003 ], [ 3.82006934900005, 7.239577808000035 ], [ 3.820076757000038, 7.239698409000027 ] ] ] ] } },
{ "type": "Feature", "properties": { "OBJECTID": 48, "SHAPE_Leng": 0.0022011483, "SHAPE_Area": 8.24e-08, "Name": "MALE UNIVERSITY HOSTEL", "Building_H": 7.0, "id": 45, "Infrastruc": "RESIDENTIAL" }, "geometry": { "type": "MultiPolygon", "coordinates": [ [ [ [ 3.820184919000042, 7.240074992000075 ], [ 3.820473683000046, 7.240067293000038 ], [ 3.820473653000022, 7.240050541000073 ], [ 3.820577889000049, 7.240044370000021 ], [ 3.820573879000051, 7.23994745400006 ], [ 3.82058250800003, 7.239948157000072 ], [ 3.820580238000048, 7.239885700000059 ], [ 3.82057233200004, 7.239887150000072 ], [ 3.820568778000052, 7.239790002000063 ], [ 3.820463940000025, 7.239794977000031 ], [ 3.820463314000051, 7.239780021000058 ], [ 3.820169039000064, 7.239787891000049 ], [ 3.82016926600005, 7.23991329100005 ], [ 3.82020856500003, 7.239911306000067 ], [ 3.820205611000063, 7.239868235000074 ], [ 3.820453869000062, 7.239858215000027 ], [ 3.820452971000066, 7.23989172000006 ], [ 3.82041123700003, 7.239893969000036 ], [ 3.820412782000062, 7.239953556000046 ], [ 3.820458073000054, 7.239952039000059 ], [ 3.820456687000046, 7.239980759000048 ], [ 3.820210110000062, 7.239992690000065 ], [ 3.820211480000069, 7.239955355000063 ], [ 3.820175537000068, 7.239957573000027 ], [ 3.820184919000042, 7.240074992000075 ] ] ] ] } },
{ "type": "Feature", "properties": { "OBJECTID": 49, "SHAPE_Leng": 0.00085224863, "SHAPE_Area": 3.791e-08, "Name": "ELSALEM BLOCK A", "Building_H": 7.0, "id": 46, "Infrastruc": "RESIDENTIAL" }, "geometry": { "type": "MultiPolygon", "coordinates": [ [ [ [ 3.820652929000062, 7.240454489000058 ], [ 3.820742751000068, 7.240428481000038 ], [ 3.820743470000025, 7.240428479000059 ], [ 3.820735503000037, 7.240396186000055 ], [ 3.820756341000049, 7.240389687000061 ], [ 3.820680467000045, 7.240177312000071 ], [ 3.820660347000057, 7.240183092000052 ], [ 3.820648794000022, 7.240155113000071 ], [ 3.820557546000032, 7.240187585000058 ], [ 3.820566944000063, 7.24021628600002 ], [ 3.820546827000044, 7.24022350100006 ], [ 3.820621262000031, 7.240435879000074 ], [ 3.820643534000055, 7.24042722400003 ], [ 3.820652929000062, 7.240454489000058 ] ] ] ] } },
{ "type": "Feature", "properties": { "OBJECTID": 50, "SHAPE_Leng": 0.0009001246, "SHAPE_Area": 4.938e-08, "Name": null, "Building_H": 2.5, "id": 47, "Infrastruc": null }, "geometry": { "type": "MultiPolygon", "coordinates": [ [ [ [ 3.823061327000062, 7.241905032000034 ], [ 3.823198149000063, 7.242026836000036 ], [ 3.823373966000077, 7.24184703100002 ], [ 3.823237105000032, 7.241703690000065 ], [ 3.823061327000062, 7.241905032000034 ] ] ] ] } },
{ "type": "Feature", "properties": { "OBJECTID": 51, "SHAPE_Leng": 0.00044269702, "SHAPE_Area": 7.42e-09, "Name": null, "Building_H": 2.5, "id": 48, "Infrastruc": null }, "geometry": { "type": "MultiPolygon", "coordinates": [ [ [ [ 3.825271337000061, 7.241222931000038 ], [ 3.825290581000047, 7.241262383000048 ], [ 3.825443793000034, 7.241172363000032 ], [ 3.825430545000074, 7.24113529300007 ], [ 3.825271337000061, 7.241222931000038 ] ] ] ] } },
{ "type": "Feature", "properties": { "OBJECTID": 52, "SHAPE_Leng": 0.00039097917, "SHAPE_Area": 8.37e-09, "Name": null, "Building_H": 2.5, "id": 49, "Infrastruc": null }, "geometry": { "type": "MultiPolygon", "coordinates": [ [ [ [ 3.825667446000068, 7.241381043000047 ], [ 3.825722862000021, 7.241412532000027 ], [ 3.825752996000062, 7.241378016000056 ], [ 3.825768840000023, 7.241393064000022 ], [ 3.825803975000042, 7.24134202700003 ], [ 3.825732708000032, 7.241291900000022 ], [ 3.825667446000068, 7.241381043000047 ] ] ] ] } },
{ "type": "Feature", "properties": { "OBJECTID": 54, "SHAPE_Leng": 0.00050801958, "SHAPE_Area": 1.542e-08, "Name": null, "Building_H": 2.5, "id": 50, "Infrastruc": null }, "geometry": { "type": "MultiPolygon", "coordinates": [ [ [ [ 3.82583898300004, 7.241307492000033 ], [ 3.82581118500002, 7.241334581000046 ], [ 3.825803975000042, 7.24134202700003 ], [ 3.825768840000023, 7.241393064000022 ], [ 3.825767879000068, 7.241395326000031 ], [ 3.825732898000069, 7.241439028000059 ], [ 3.825809211000035, 7.241496325000071 ], [ 3.825896029000035, 7.241378584000074 ], [ 3.825896594000028, 7.241359438000075 ], [ 3.82583898300004, 7.241307492000033 ] ] ] ] } },
{ "type": "Feature", "properties": { "OBJECTID": 55, "SHAPE_Leng": 0.00034877287, "SHAPE_Area": 7.02e-09, "Name": null, "Building_H": 2.5, "id": 51, "Infrastruc": null }, "geometry": { "type": "MultiPolygon", "coordinates": [ [ [ [ 3.82558941700006, 7.24155849300007 ], [ 3.825682984000025, 7.241615161000027 ], [ 3.825720039000032, 7.24156543600003 ], [ 3.825625267000021, 7.241504582000061 ], [ 3.82558941700006, 7.24155849300007 ] ] ] ] } },
{ "type": "Feature", "properties": { "OBJECTID": 56, "SHAPE_Leng": 0.00023972468, "SHAPE_Area": 2.8e-09, "Name": null, "Building_H": 2.5, "id": 52, "Infrastruc": null }, "geometry": { "type": "MultiPolygon", "coordinates": [ [ [ [ 3.826003339000067, 7.241412801000024 ], [ 3.826042934000043, 7.241441806000068 ], [ 3.826057649000063, 7.241429215000039 ], [ 3.826069547000031, 7.241448219000063 ], [ 3.826086044000022, 7.241427369000064 ], [ 3.826068038000074, 7.241409453000074 ], [ 3.82606983200003, 7.241407296000034 ], [ 3.826027001000057, 7.241377938000028 ], [ 3.826003339000067, 7.241412801000024 ] ] ] ] } },
{ "type": "Feature", "properties": { "OBJECTID": 57, "SHAPE_Leng": 0.00019494065, "SHAPE_Area": 2.15e-09, "Name": null, "Building_H": 2.5, "id": 53, "Infrastruc": null }, "geometry": { "type": "MultiPolygon", "coordinates": [ [ [ [ 3.825848411000038, 7.241712047000021 ], [ 3.825900778000062, 7.241681439000047 ], [ 3.82588368200004, 7.241669803000036 ], [ 3.825871368000037, 7.241652176000059 ], [ 3.825825300000076, 7.241687858000034 ], [ 3.825838213000054, 7.241704886000036 ], [ 3.825848411000038, 7.241712047000021 ] ] ] ] } },
{ "type": "Feature", "properties": { "OBJECTID": 58, "SHAPE_Leng": 0.0003553409, "SHAPE_Area": 7.78e-09, "Name": null, "Building_H": 2.5, "id": 54, "Infrastruc": null }, "geometry": { "type": "MultiPolygon", "coordinates": [ [ [ [ 3.825726184000075, 7.241775019000045 ], [ 3.825796269000023, 7.241833763000045 ], [ 3.825850797000044, 7.24177239900007 ], [ 3.825786454000024, 7.241707901000041 ], [ 3.825785978000056, 7.241709817000071 ], [ 3.825785980000035, 7.241710774000069 ], [ 3.825726184000075, 7.241775019000045 ] ] ] ] } },
{ "type": "Feature", "properties": { "OBJECTID": 59, "SHAPE_Leng": 0.00033852291, "SHAPE_Area": 6.99e-09, "Name": null, "Building_H": 2.5, "id": 55, "Infrastruc": null }, "geometry": { "type": "MultiPolygon", "coordinates": [ [ [ [ 3.825615867000067, 7.241732142000046 ], [ 3.825693146000049, 7.241793267000048 ], [ 3.825740979000045, 7.241740052000068 ], [ 3.825667536000026, 7.24167987800007 ], [ 3.825615867000067, 7.241732142000046 ] ] ] ] } },
{ "type": "Feature", "properties": { "OBJECTID": 60, "SHAPE_Leng": 0.00031815594, "SHAPE_Area": 5.56e-09, "Name": "SECURITY POST", "Building_H": 3.6, "id": 56, "Infrastruc": "INSTITUTIONAL" }, "geometry": { "type": "MultiPolygon", "coordinates": [ [ [ [ 3.826737342000058, 7.240873802000067 ], [ 3.826777673000038, 7.240912019000064 ], [ 3.826854235000042, 7.240842957000041 ], [ 3.826823490000038, 7.240804723000053 ], [ 3.826737342000058, 7.240873802000067 ] ] ] ] } },
{ "type": "Feature", "properties": { "OBJECTID": 61, "SHAPE_Leng": 0.0002454729, "SHAPE_Area": 3.69e-09, "Name": "BREAK THROUGH CATERING SERVICES", "Building_H": 2.5, "id": 57, "Infrastruc": "COMMERCIAL" }, "geometry": { "type": "MultiPolygon", "coordinates": [ [ [ [ 3.820948433000069, 7.239430108000022 ], [ 3.821014069000057, 7.239414674000045 ], [ 3.820998639000038, 7.239363488000038 ], [ 3.820930127000054, 7.239378928000065 ], [ 3.820948433000069, 7.239430108000022 ] ] ] ] } },
{ "type": "Feature", "properties": { "OBJECTID": 62, "SHAPE_Leng": 0.00018320192, "SHAPE_Area": 2.04e-09, "Name": "MUMMY WARIS FOOD CANTEEN", "Building_H": 2.5, "id": 58, "Infrastruc": "COMMERCIAL" }, "geometry": { "type": "MultiPolygon", "coordinates": [ [ [ [ 3.821033800000066, 7.23940564000003 ], [ 3.821070789000032, 7.239399064000054 ], [ 3.82105976500003, 7.239345860000071 ], [ 3.821021439000049, 7.239355311000054 ], [ 3.821033800000066, 7.23940564000003 ] ] ] ] } },
{ "type": "Feature", "properties": { "OBJECTID": 63, "SHAPE_Leng": 0.00023055199, "SHAPE_Area": 2.95e-09, "Name": "RAHMAN SHOP", "Building_H": 2.5, "id": 59, "Infrastruc": "COMMERCIAL" }, "geometry": { "type": "MultiPolygon", "coordinates": [ [ [ [ 3.820947921000027, 7.239507885000023 ], [ 3.821007804000033, 7.23949192300006 ], [ 3.820992145000048, 7.239446780000037 ], [ 3.820983462000072, 7.239448890000062 ], [ 3.820982553000022, 7.239443208000068 ], [ 3.820971177000047, 7.239447416000075 ], [ 3.820973284000047, 7.239453096000034 ], [ 3.820933163000063, 7.239463938000029 ], [ 3.820947921000027, 7.239507885000023 ] ] ] ] } },
{ "type": "Feature", "properties": { "OBJECTID": 64, "SHAPE_Leng": 0.0001024154, "SHAPE_Area": 6.3e-10, "Name": null, "Building_H": 2.5, "id": 60, "Infrastruc": null }, "geometry": { "type": "MultiPolygon", "coordinates": [ [ [ [ 3.821003074000032, 7.239478287000054 ], [ 3.821021311000038, 7.239473507000071 ], [ 3.821015650000049, 7.239443938000022 ], [ 3.820995241000048, 7.239449144000048 ], [ 3.820993164000072, 7.23944971800006 ], [ 3.821002996000061, 7.239478062000046 ], [ 3.821003054000073, 7.239478230000032 ], [ 3.821003074000032, 7.239478287000054 ] ] ] ] } },
{ "type": "Feature", "properties": { "OBJECTID": 65, "SHAPE_Leng": 0.00015538982, "SHAPE_Area": 1.42e-09, "Name": "CHOWSPACE", "Building_H": 2.5, "id": 61, "Infrastruc": "COMMERCIAL" }, "geometry": { "type": "MultiPolygon", "coordinates": [ [ [ [ 3.821024925000074, 7.239484270000048 ], [ 3.821052955000027, 7.239479193000022 ], [ 3.821046540000054, 7.239430672000026 ], [ 3.821016215000043, 7.239438480000047 ], [ 3.821016359000055, 7.239438624000059 ], [ 3.821024925000074, 7.239484270000048 ] ] ] ] } },
{ "type": "Feature", "properties": { "OBJECTID": 66, "SHAPE_Leng": 7.755014e-05, "SHAPE_Area": 3.7e-10, "Name": null, "Building_H": 2.5, "id": 62, "Infrastruc": null }, "geometry": { "type": "MultiPolygon", "coordinates": [ [ [ [ 3.821046540000054, 7.239430672000026 ], [ 3.821048828000073, 7.239447981000069 ], [ 3.821049507000055, 7.239447927000072 ], [ 3.821068915000069, 7.239445678000038 ], [ 3.821065121000061, 7.239425458000028 ], [ 3.821046540000054, 7.239430672000026 ] ] ] ] } },
{ "type": "Feature", "properties": { "OBJECTID": 67, "SHAPE_Leng": 8.99585e-05, "SHAPE_Area": 5.0000000000000003e-10, "Name": "FODEC VENTURES", "Building_H": 2.5, "id": 63, "Infrastruc": "COMMERCIAL" }, "geometry": { "type": "MultiPolygon", "coordinates": [ [ [ [ 3.821052955000027, 7.239479193000022 ], [ 3.821074174000046, 7.23947501400005 ], [ 3.821071857000049, 7.239452762000042 ], [ 3.821050294000031, 7.239455577000058 ], [ 3.821049841000047, 7.239455642000053 ], [ 3.821050356000057, 7.239459533000058 ], [ 3.821052955000027, 7.239479193000022 ] ] ] ] } },
{ "type": "Feature", "properties": { "OBJECTID": 68, "SHAPE_Leng": 0.00015602625, "SHAPE_Area": 1.49e-09, "Name": "SUCCESS BJ ENTERPRISE", "Building_H": 2.5, "id": 64, "Infrastruc": "COMMERCIAL" }, "geometry": { "type": "MultiPolygon", "coordinates": [ [ [ [ 3.820986082000047, 7.239547295000023 ], [ 3.82101808300007, 7.239538048000043 ], [ 3.821006118000071, 7.239494801000035 ], [ 3.820974501000023, 7.239503856000056 ], [ 3.820986082000047, 7.239547295000023 ] ] ] ] } },
{ "type": "Feature", "properties": { "OBJECTID": 69, "SHAPE_Leng": 0.00019292954, "SHAPE_Area": 2.34e-09, "Name": "PWESH LAUNDRY SERVICES", "Building_H": 2.5, "id": 65, "Infrastruc": "COMMERCIAL" }, "geometry": { "type": "MultiPolygon", "coordinates": [ [ [ [ 3.821006118000071, 7.239494801000035 ], [ 3.82100650700005, 7.239496206000069 ], [ 3.82101808300007, 7.239538048000043 ], [ 3.821065225000041, 7.239526667000064 ], [ 3.821051433000036, 7.239480456000024 ], [ 3.821008916000039, 7.239489156000047 ], [ 3.821006948000047, 7.239489455000069 ], [ 3.821007804000033, 7.23949192300006 ], [ 3.821006118000071, 7.239494801000035 ] ] ] ] } },
{ "type": "Feature", "properties": { "OBJECTID": 70, "SHAPE_Leng": 0.00012410026, "SHAPE_Area": 8.7e-10, "Name": "AYOMIDE ENTERPRISE", "Building_H": 2.5, "id": 66, "Infrastruc": "COMMERCIAL" }, "geometry": { "type": "MultiPolygon", "coordinates": [ [ [ [ 3.821074174000046, 7.23947501400005 ], [ 3.821070640000073, 7.239475710000022 ], [ 3.821052955000027, 7.239479193000022 ], [ 3.821051433000036, 7.239480456000024 ], [ 3.821063303000074, 7.23952022800006 ], [ 3.821064704000037, 7.23951971300005 ], [ 3.821081111000069, 7.239514778000057 ], [ 3.821074174000046, 7.23947501400005 ] ] ] ] } },
{ "type": "Feature", "properties": { "OBJECTID": 71, "SHAPE_Leng": 0.00012033654, "SHAPE_Area": 8.8e-10, "Name": null, "Building_H": 2.5, "id": 67, "Infrastruc": null }, "geometry": { "type": "MultiPolygon", "coordinates": [ [ [ [ 3.821080916000028, 7.239509732000045 ], [ 3.821105267000064, 7.239503311000021 ], [ 3.821099280000055, 7.239470105000066 ], [ 3.821074270000054, 7.239475562000052 ], [ 3.821074370000076, 7.239476139000033 ], [ 3.821076813000047, 7.239490139000054 ], [ 3.821080299000073, 7.239510123000059 ], [ 3.821080916000028, 7.239509732000045 ] ] ] ] } },
{ "type": "Feature", "properties": { "OBJECTID": 72, "SHAPE_Leng": 0.00013758259, "SHAPE_Area": 1.19e-09, "Name": "OLUWA SEUN BEAUTY SALOON", "Building_H": 2.5, "id": 68, "Infrastruc": "COMMERCIAL" }, "geometry": { "type": "MultiPolygon", "coordinates": [ [ [ [ 3.821105267000064, 7.239503311000021 ], [ 3.821139403000075, 7.239495971000053 ], [ 3.821131576000028, 7.239461811000069 ], [ 3.821099955000022, 7.239468761000069 ], [ 3.821099280000055, 7.239470105000066 ], [ 3.821105267000064, 7.239503311000021 ] ] ] ] } },
{ "type": "Feature", "properties": { "OBJECTID": 73, "SHAPE_Leng": 0.0, "SHAPE_Area": 0.0, "Name": null, "Building_H": 2.5, "id": 69, "Infrastruc": null }, "geometry": { "type": "MultiPolygon", "coordinates": [ ] } },
{ "type": "Feature", "properties": { "OBJECTID": 74, "SHAPE_Leng": 0.00041734056, "SHAPE_Area": 7.14e-09, "Name": null, "Building_H": 2.5, "id": 70, "Infrastruc": null }, "geometry": { "type": "MultiPolygon", "coordinates": [ [ [ [ 3.821606221000025, 7.238705799000059 ], [ 3.821621635000042, 7.23874789100006 ], [ 3.821780671000056, 7.238697826000021 ], [ 3.821763347000058, 7.23865956700007 ], [ 3.821606221000025, 7.238705799000059 ] ] ] ] } },
{ "type": "Feature", "properties": { "OBJECTID": 75, "SHAPE_Leng": 0.00034631903, "SHAPE_Area": 6.77e-09, "Name": null, "Building_H": 2.5, "id": 71, "Infrastruc": null }, "geometry": { "type": "MultiPolygon", "coordinates": [ [ [ [ 3.821002552000039, 7.23878307800004 ], [ 3.821066016000032, 7.238759032000075 ], [ 3.821031076000054, 7.238653796000051 ], [ 3.82098078100006, 7.238670639000077 ], [ 3.821002552000039, 7.23878307800004 ] ] ] ] } },
{ "type": "Feature", "properties": { "OBJECTID": 76, "SHAPE_Leng": 0.00028459817, "SHAPE_Area": 4.91e-09, "Name": null, "Building_H": 2.5, "id": 72, "Infrastruc": null }, "geometry": { "type": "MultiPolygon", "coordinates": [ [ [ [ 3.823100810000028, 7.238676067000029 ], [ 3.823143304000041, 7.238717631000043 ], [ 3.823201434000055, 7.238660091000042 ], [ 3.823162533000072, 7.238617084000055 ], [ 3.823100810000028, 7.238676067000029 ] ] ] ] } },
{ "type": "Feature", "properties": { "OBJECTID": 77, "SHAPE_Leng": 0.0001353341, "SHAPE_Area": 1.09e-09, "Name": null, "Building_H": 2.5, "id": 73, "Infrastruc": null }, "geometry": { "type": "MultiPolygon", "coordinates": [ [ [ [ 3.822993987000075, 7.238841388000026 ], [ 3.823012714000072, 7.23886002100005 ], [ 3.82304214200002, 7.238833403000058 ], [ 3.823024850000024, 7.23881261400004 ], [ 3.822993987000075, 7.238841388000026 ] ] ] ] } },
{ "type": "Feature", "properties": { "OBJECTID": 78, "SHAPE_Leng": 0.0, "SHAPE_Area": 0.0, "Name": null, "Building_H": 2.5, "id": 74, "Infrastruc": null }, "geometry": { "type": "MultiPolygon", "coordinates": [ ] } },
{ "type": "Feature", "properties": { "OBJECTID": 79, "SHAPE_Leng": 0.0, "SHAPE_Area": 0.0, "Name": null, "Building_H": 2.5, "id": 75, "Infrastruc": null }, "geometry": { "type": "MultiPolygon", "coordinates": [ ] } },
{ "type": "Feature", "properties": { "OBJECTID": 80, "SHAPE_Leng": 0.0, "SHAPE_Area": 0.0, "Name": null, "Building_H": 2.5, "id": 76, "Infrastruc": null }, "geometry": { "type": "MultiPolygon", "coordinates": [ ] } },
{ "type": "Feature", "properties": { "OBJECTID": 81, "SHAPE_Leng": 0.0, "SHAPE_Area": 0.0, "Name": null, "Building_H": 2.5, "id": 77, "Infrastruc": null }, "geometry": { "type": "MultiPolygon", "coordinates": [ ] } },
{ "type": "Feature", "properties": { "OBJECTID": 82, "SHAPE_Leng": 0.0, "SHAPE_Area": 0.0, "Name": null, "Building_H": 2.5, "id": 78, "Infrastruc": null }, "geometry": { "type": "MultiPolygon", "coordinates": [ ] } }
]
}
